{
  "norad_id": 64223,
  "name": "STARLINK-34337",
  "history": [
    {
      "epoch": "2026-03-28T21:26:15.757152",
      "apogee_km": 476.1220926557289,
      "perigee_km": 474.31623330678303,
      "latitude_deg": -35.304965112996996,
      "longitude_deg": -31.94915871997364,
      "semi_major_axis_km": 6853.356162981256,
      "eccentricity": 0.00013175,
      "inclination_deg": 53.1584,
      "raan_deg": 310.5623,
      "arg_perigee_deg": 90.1201,
      "mean_anomaly_deg": 269.995,
      "mean_motion_rev_day": 15.30198629
    }
  ]
}